CZ-2C R/B               
1 52794U 22058K   25325.82483890  .00028108  00000+0  52853-3 0  9997
2 52794  50.1886 150.0933 0047853 111.9438 248.6625 15.47041522193391
CZ-2C R/B               
1 54039U 22132E   25325.48413214  .00030477  00000+0  48149-3 0  9994
2 54039  97.2946 321.3059 0023652 126.8491 233.4936 15.53112559173538
GSLV R/B                
1 54149U 22138AN  25325.71915934  .00002679  00000+0  23553-3 0  9999
2 54149  87.3847 202.5104 0021491 177.0642 183.0720 14.95973953167785
XRISM                   
1 57800U 23137A   25325.02304922  .00006093  00000+0  35961-3 0  9999
2 57800  31.0030 265.7261 0007721  24.0441 336.0557 15.10042607121346
ACS3                    
1 59588U 24077B   25325.51068514  .00027085  00000+0  23825-1 0  9994
2 59588  97.2974 285.8483 0069329  17.3855 342.9657 13.84103631 79205
