CCSDS_OMM_VERS = 2.0
CREATION_DATE  = 
ORIGINATOR     = 

OBJECT_NAME    = CZ-2C R/B
OBJECT_ID      = 2022-058K
CENTER_NAME    = EARTH
REF_FRAME      = TEME
TIME_SYSTEM    = UTC
MEAN_ELEMENT_THEORY = SGP/SGP4

EPOCH          = 2025-11-21T19:47:46.080960
MEAN_MOTION    = 15.47041522
ECCENTRICITY   = .0047853
INCLINATION    = 50.1886
RA_OF_ASC_NODE = 150.0933
ARG_OF_PERICENTER = 111.9438
MEAN_ANOMALY   = 248.6625

EPHEMERIS_TYPE = 0
CLASSIFICATION_TYPE = U
NORAD_CAT_ID   = 52794
ELEMENT_SET_NO = 999
REV_AT_EPOCH   = 19339
BSTAR          = .52853E-3
MEAN_MOTION_DOT = .28108E-3
MEAN_MOTION_DDOT = 0

CCSDS_OMM_VERS = 2.0
CREATION_DATE  = 
ORIGINATOR     = 

OBJECT_NAME    = CZ-2C R/B
OBJECT_ID      = 2022-132E
CENTER_NAME    = EARTH
REF_FRAME      = TEME
TIME_SYSTEM    = UTC
MEAN_ELEMENT_THEORY = SGP/SGP4

EPOCH          = 2025-11-21T11:37:09.016896
MEAN_MOTION    = 15.53112559
ECCENTRICITY   = .0023652
INCLINATION    = 97.2946
RA_OF_ASC_NODE = 321.3059
ARG_OF_PERICENTER = 126.8491
MEAN_ANOMALY   = 233.4936

EPHEMERIS_TYPE = 0
CLASSIFICATION_TYPE = U
NORAD_CAT_ID   = 54039
ELEMENT_SET_NO = 999
REV_AT_EPOCH   = 17353
BSTAR          = .48149E-3
MEAN_MOTION_DOT = .30477E-3
MEAN_MOTION_DDOT = 0

CCSDS_OMM_VERS = 2.0
CREATION_DATE  = 
ORIGINATOR     = 

OBJECT_NAME    = GSLV R/B
OBJECT_ID      = 2022-138AN
CENTER_NAME    = EARTH
REF_FRAME      = TEME
TIME_SYSTEM    = UTC
MEAN_ELEMENT_THEORY = SGP/SGP4

EPOCH          = 2025-11-21T17:15:35.366976
MEAN_MOTION    = 14.95973953
ECCENTRICITY   = .0021491
INCLINATION    = 87.3847
RA_OF_ASC_NODE = 202.5104
ARG_OF_PERICENTER = 177.0642
MEAN_ANOMALY   = 183.0720

EPHEMERIS_TYPE = 0
CLASSIFICATION_TYPE = U
NORAD_CAT_ID   = 54149
ELEMENT_SET_NO = 999
REV_AT_EPOCH   = 16778
BSTAR          = .23553E-3
MEAN_MOTION_DOT = .2679E-4
MEAN_MOTION_DDOT = 0

CCSDS_OMM_VERS = 2.0
CREATION_DATE  = 
ORIGINATOR     = 

OBJECT_NAME    = XRISM
OBJECT_ID      = 2023-137A
CENTER_NAME    = EARTH
REF_FRAME      = TEME
TIME_SYSTEM    = UTC
MEAN_ELEMENT_THEORY = SGP/SGP4

EPOCH          = 2025-11-21T00:33:11.452608
MEAN_MOTION    = 15.10042607
ECCENTRICITY   = .0007721
INCLINATION    = 31.0030
RA_OF_ASC_NODE = 265.7261
ARG_OF_PERICENTER = 24.0441
MEAN_ANOMALY   = 336.0557

EPHEMERIS_TYPE = 0
CLASSIFICATION_TYPE = U
NORAD_CAT_ID   = 57800
ELEMENT_SET_NO = 999
REV_AT_EPOCH   = 12134
BSTAR          = .35961E-3
MEAN_MOTION_DOT = .6093E-4
MEAN_MOTION_DDOT = 0

CCSDS_OMM_VERS = 2.0
CREATION_DATE  = 
ORIGINATOR     = 

OBJECT_NAME    = ACS3
OBJECT_ID      = 2024-077B
CENTER_NAME    = EARTH
REF_FRAME      = TEME
TIME_SYSTEM    = UTC
MEAN_ELEMENT_THEORY = SGP/SGP4

EPOCH          = 2025-11-21T12:15:23.196096
MEAN_MOTION    = 13.84103631
ECCENTRICITY   = .0069329
INCLINATION    = 97.2974
RA_OF_ASC_NODE = 285.8483
ARG_OF_PERICENTER = 17.3855
MEAN_ANOMALY   = 342.9657

EPHEMERIS_TYPE = 0
CLASSIFICATION_TYPE = U
NORAD_CAT_ID   = 59588
ELEMENT_SET_NO = 999
REV_AT_EPOCH   = 7920
BSTAR          = .23825E-1
MEAN_MOTION_DOT = .27085E-3
MEAN_MOTION_DDOT = 0

